285P/LINEAR,e,25.0351,185.4979,178.4136,4.508370,0.1029615,0.61832855,291.8920,03/22.0/2021,2000,g 15.0,4.0
# From MPC 90771
286P/Christensen,e,17.0450,283.9602,24.8176,4.109580,0.1183063,0.42534318,310.7178,03/22.0/2021,2000,g 14.0,4.0
# From MPC 96868
287P/Christensen,e,16.3199,139.0449,188.9084,4.166029,0.1159099,0.27087156,263.3123,03/22.0/2021,2000,g 13.5,4.0
# From MPC xxxxx
288P/,e,3.2396,83.1882,280.5708,3.049268,0.1851018,0.20140242,295.9266,03/22.0/2021,2000,g 16.0,2.0
# From MPEC 2021-F20
289P/Blanpain,e,5.8945,68.8862,9.8686,3.047164,0.1852936,0.68541322,84.6858,03/22.0/2021,2000,g 19.0,4.0
# From MPC 95214
290P/Jager,e,20.2129,302.6878,181.9731,6.200967,0.0638285,0.63136627,165.7275,03/22.0/2021,2000,g 10.5,4.0
# From MPC 89314
291P/NEAT,e,6.3110,238.0918,173.8299,4.520918,0.1025331,0.43568731,280.5258,03/22.0/2021,2000,g 13.0,4.0
# From MPC115887
292P/Li,e,24.2587,90.9853,319.4546,6.107889,0.0652931,0.58815758,170.2663,03/22.0/2021,2000,g 12.5,4.0
# From MPEC 2021-F20
293P/Spacewatch,e,9.0564,78.4100,41.0529,3.644090,0.1416838,0.41828652,13.1404,03/22.0/2021,2000,g 14.5,4.0
# From MPEC 2020-SI8
294P/LINEAR,e,18.2274,312.5913,235.4428,3.205207,0.1717592,0.59576824,82.0581,03/22.0/2021,2000,g 15.5,4.0
# From MPC 93589
295P/LINEAR,e,21.0735,7.4227,72.9129,5.306551,0.0806279,0.61609612,202.6352,03/22.0/2021,2000,g 12.0,4.0
# From MPEC 2020-SI8
296P/Garradd,e,25.2298,263.6308,350.1178,3.498096,0.1506456,0.47879657,27.8843,03/22.0/2021,2000,g 14.0,4.0
# From MPC102956
297P/Beshore,e,10.3286,97.6595,132.5071,3.442156,0.1543328,0.31919934,8.9689,03/22.0/2021,2000,g 15.0,4.0
# From MPC114609
298P/Christensen,e,7.8704,52.8222,100.6811,3.592081,0.1447721,0.38667037,28.4719,03/22.0/2021,2000,g 15.0,4.0
# From MPC101100
299P/Catalina-PANSTARRS,e,10.4753,271.6256,323.8952,4.384902,0.1073407,0.28157664,238.0824,03/22.0/2021,2000,g 11.5,4.0
# From MPC114609
300P/Catalina,e,5.6755,95.6615,222.8847,2.700013,0.2221546,0.69177979,193.4023,03/22.0/2021,2000,g 16.0,4.0
# From MPC 89014
301P/LINEAR-NEAT,e,10.3409,351.1764,193.7058,5.738655,0.0716950,0.58533855,171.8937,03/22.0/2021,2000,g 13.0,4.0
# From MPEC 2020-HN5
302P/Lemmon-PANSTARRS,e,6.0343,121.7551,208.2312,4.276425,0.1114507,0.23009645,198.8252,03/22.0/2021,2000,g 12.5,4.0
# From MPC 92278
303P/NEAT,e,7.0205,347.9707,356.8773,5.047830,0.0869054,0.51054346,204.0364,03/22.0/2021,2000,g 13.5,4.0
# From MPEC 2020-N08
304P/Ory,e,2.6067,58.9333,335.2318,3.150435,0.1762578,0.60050293,39.0566,03/22.0/2021,2000,g 16.5,4.0
# From MPC101100
305P/Skiff,e,11.6479,240.1195,147.2824,4.644159,0.0984790,0.69318460,228.3625,03/22.0/2021,2000,g 18.0,4.0
# From MPC 92278
306P/LINEAR,e,8.3110,341.3751,0.8344,3.122844,0.1785989,0.59330214,75.7414,03/22.0/2021,2000,g 19.0,4.0
# From MPC 92278
307P/LINEAR,e,4.4338,158.1488,222.1346,5.793232,0.0706843,0.67458779,161.3808,03/22.0/2021,2000,g 15.0,4.0
# From MPC109148
308P/Lagerkvist-Carsenty,e,4.8505,63.0880,333.5929,6.604766,0.0580655,0.36327765,124.6669,03/22.0/2021,2000,g 13.0,2.0
# From MPC 94284
309P/LINEAR,e,17.0233,10.1411,49.9612,4.371595,0.1078311,0.61763675,240.9714,03/22.0/2021,2000,g 15.0,4.0
# From MPC 98566
310P/Hill,e,13.1279,8.9251,31.8322,4.178263,0.1154012,0.42181339,250.7337,03/22.0/2021,2000,g 13.5,4.0
# From MPEC 2021-BE3
311P/PANSTARRS,e,4.9697,279.2274,144.5848,2.188841,0.3043566,0.11548686,50.3886,03/22.0/2021,2000,g 17.0,4.0
# From MPEC 2021-BE3
312P/NEAT,e,19.7684,144.6695,207.5390,3.466264,0.1527255,0.42782140,27.1834,03/22.0/2021,2000,g 16.0,4.0
# From MPEC 2021-BE3
313P/Gibbs,e,10.9830,105.9733,254.6726,3.162224,0.1752730,0.23497080,59.6967,03/22.0/2021,2000,g 15.0,4.0
# From MPC105243
314P/Montani,e,3.9798,267.6156,214.1515,7.270644,0.0502742,0.41602879,81.7393,03/22.0/2021,2000,g  9.5,4.0
# From MPC115888
315P/LONEOS,e,17.7687,68.9591,65.6880,4.939169,0.0897890,0.52164277,141.2930,03/22.0/2021,2000,g 11.0,4.0
# From MPC 92279
316P/LONEOS-Christensen,e,9.8520,246.6693,193.4453,4.359010,0.1082985,0.15785846,214.9934,03/22.0/2021,2000,g 13.5,4.0
# From MPEC 2020-C98
317P/WISE,e,11.9499,275.5139,334.8995,2.965209,0.1930284,0.57050082,34.1321,03/22.0/2021,2000,g 17.5,4.0
# From MPC102103
318P/McNaught-Hartley,e,17.8765,35.5994,313.1602,7.497830,0.0480066,0.67518049,94.8361,03/22.0/2021,2000,g  8.5,6.0
# From MPC 97499
319P/Catalina-McNaught,e,15.0950,111.3766,203.6467,3.567673,0.1462603,0.66661187,305.2369,03/22.0/2021,2000,g 15.0,4.0
# From MPC 96281
320P/McNaught,e,4.9089,295.9296,0.7745,3.093814,0.1811185,0.68573799,11.5662,03/22.0/2021,2000,g 20.5,4.0
# From MPC105243
321P/SOHO,e,20.0721,165.0265,172.7375,2.423354,0.2612636,0.98109846,0.0000,01/17.2934/2020,2000,g 20.0,4.0
# From MPC102103
322P/SOHO,e,11.4636,351.4960,56.9048,2.508033,0.2481443,0.97979985,0.0000,08/31.4453/2019,2000,g 19.0,4.0
# From MPEC 2016-Y36
323P/SOHO,e,5.3387,324.3750,353.0535,2.582159,0.2375362,0.98484294,0.0000,01/17.7619/2021,2000,g 20.0,4.0
# From MPC108598
324P/La Sagra,e,21.4072,270.6288,57.7006,3.097800,0.1807690,0.15469880,351.8492,03/22.0/2021,2000,g 13.0,4.0
# From MPC114609
325P/Yang-Gao,e,16.6956,257.5719,343.6889,3.523906,0.1489936,0.59357327,304.5536,03/22.0/2021,2000,g 14.0,4.0
# From MPC103849
326P/Hill,e,2.4708,99.8122,278.5877,4.063752,0.1203132,0.31761801,238.0157,03/22.0/2021,2000,g 13.5,4.0
# From MPC 97499
327P/Van Ness,e,36.2492,173.9801,185.0301,3.562405,0.1465849,0.56298273,282.3842,03/22.0/2021,2000,g 16.0,4.0
# From MPC109148
328P/LONEOS-Tucker,e,17.6718,341.6303,30.4827,4.194980,0.1147121,0.55200961,219.5621,03/22.0/2021,2000,g 14.5,4.0
# From MPC101101
329P/LINEAR-Catalina,e,21.6696,87.6783,343.5354,5.191842,0.0833148,0.67705384,161.5619,03/22.0/2021,2000,g 13.5,4.0
# From MPC105243
330P/Catalina,e,15.6942,293.0958,188.9731,6.630024,0.0577340,0.54837723,96.3294,03/22.0/2021,2000,g 12.0,4.0
# From MPEC 2021-BE3
331P/Gibbs,e,9.7387,216.7763,183.8480,3.004005,0.1893011,0.04086651,32.7263,03/22.0/2021,2000,g 12.0,4.0
# From MPEC 2016-K18
332P/Ikeya-Murakami,e,9.3799,3.7882,152.3470,3.089060,0.1815367,0.48946281,332.8729,03/22.0/2021,2000,g 18.0,4.0
# From MPEC 2016-EI8
332P-B/Ikeya-Murakami,e,9.3805,3.8028,152.3711,3.082329,0.1821317,0.48970701,359.9699,03/17.0/2016,2000,g 19.0,4.0
# From MPEC 2016-K18
332P-C/Ikeya-Murakami,e,9.3789,3.7886,152.3383,3.089026,0.1815397,0.48946827,332.8866,03/22.0/2021,2000,g 16.5,4.0
# From MPEC 2016-ED0
332P-D/Ikeya-Murakami,e,9.3761,3.7923,152.4393,3.081138,0.1822373,0.48977814,359.9486,03/17.0/2016,2000,g 19.0,4.0
# From MPEC 2016-ED0
332P-E/Ikeya-Murakami,e,9.3774,3.8228,152.2825,3.079877,0.1823493,0.48922008,359.9889,03/17.0/2016,2000,g 21.0,4.0
# From MPEC 2016-ED0
332P-F/Ikeya-Murakami,e,9.5293,3.4757,152.8203,3.163214,0.1751908,0.49918860,359.8501,03/17.0/2016,2000,g 21.0,4.0
# From MPEC 2016-ED0
332P-G/Ikeya-Murakami,e,9.2523,3.6955,154.4000,3.050519,0.1849880,0.49200362,359.9006,03/19.0/2016,2000,g 19.0,4.0
# From MPC100285
332P-H/Ikeya-Murakami,e,9.3794,3.7883,152.3390,3.089210,0.1815235,0.48950339,332.8240,03/22.0/2021,2000,g 19.0,4.0
# From MPEC 2016-ED0
332P-I/Ikeya-Murakami,e,9.3791,3.8048,152.3297,3.081767,0.1821815,0.48955490,359.9360,03/17.0/2016,2000,g 20.5,2.0
# From MPEC 2016-EI8
332P-J/Ikeya-Murakami,e,9.4296,3.6729,152.7712,3.115165,0.1792596,0.49429435,359.8613,03/17.0/2016,2000,g 20.5,2.0
# From MPEC 2020-L06
333P/LINEAR,e,131.9798,115.6252,26.0129,4.218999,0.1137339,0.73677536,206.6220,03/22.0/2021,2000,g 15.0,4.0
# From MPC115888
334P/NEAT,e,20.4414,90.6892,90.0418,6.838492,0.0551142,0.35199101,76.2583,03/22.0/2021,2000,g 10.5,4.0
# From MPC100285
335P/Gibbs,e,7.2933,330.8472,162.2553,3.578248,0.1456124,0.54571591,286.0144,03/22.0/2021,2000,g 17.0,4.0
# From MPC105244
336P/McNaught,e,17.8338,298.2286,308.7556,5.031962,0.0873168,0.44521026,131.7039,03/22.0/2021,2000,g 13.5,4.0
# From MPC115888
337P/WISE,e,15.3725,106.0703,160.9967,3.287308,0.1653650,0.49682060,282.9295,03/22.0/2021,2000,g 17.0,4.0
# From MPC104796
338P/McNaught,e,25.3776,9.7890,4.3987,3.897379,0.1280988,0.41136688,202.4175,03/22.0/2021,2000,g 12.0,4.0
# From MPC101101
339P/Gibbs,e,5.7342,172.7354,27.5192,3.696394,0.1386873,0.63562399,236.2765,03/22.0/2021,2000,g 17.0,4.0
# From MPC102957
340P/Boattini,e,2.0794,291.7237,35.8320,4.251274,0.1124412,0.28075129,177.9441,03/22.0/2021,2000,g 13.0,4.0
# From MPEC 2021-BE3
341P/Gibbs,e,3.7954,29.9830,312.1432,4.293653,0.1107806,0.41541222,194.7450,03/22.0/2021,2000,g 12.5,4.0
# From MPC101101
342P/SOHO,e,11.6686,27.8834,73.1083,3.043358,0.1856412,0.98282024,0.0000,10/19.2814/2021,2000,g  9.0,4.0
# From MPC109148
343P/NEAT-LONEOS,e,5.5841,257.2128,137.3727,5.460664,0.0772389,0.58411986,116.9202,03/22.0/2021,2000,g 14.0,4.0
# From MPC109148
344P/Read,e,3.4907,273.1781,140.3842,4.866060,0.0918201,0.42183211,147.1240,03/22.0/2021,2000,g 13.0,4.0
# From MPC109148
345P/LINEAR,e,2.7270,154.5039,196.3813,4.039070,0.1214177,0.22094365,207.4297,03/22.0/2021,2000,g 12.0,4.0
# From MPC110086
346P/Catalina,e,22.1863,102.4669,335.9853,4.475937,0.1040826,0.50233812,155.8631,03/22.0/2021,2000,g 14.0,4.0
# From MPC108599
347P/PANSTARRS,e,11.7490,261.0341,98.3237,3.606354,0.1439135,0.38567816,237.6537,03/22.0/2021,2000,g 15.0,4.0
# From MPEC 2020-SI8
348P/PANSTARRS,e,17.7406,312.9420,135.5989,3.150834,0.1762243,0.30670212,302.3103,03/22.0/2021,2000,g 14.0,4.0
# From MPC112394
349P/Lemmon,e,5.4909,331.7440,256.0498,3.572926,0.1459379,0.29908336,190.3612,03/22.0/2021,2000,g 14.0,4.0
# From MPC111775
350P/McNaught,e,7.3570,65.3463,140.3076,4.092531,0.1190464,0.09134862,141.9385,03/22.0/2021,2000,g 14.0,4.0
# From MPC105244
351P/Wiegert-PANSTARRS,e,12.7887,283.4491,352.6582,4.437402,0.1054413,0.29593103,205.6055,03/22.0/2021,2000,g 12.5,4.0
# From MPC110086
352P/Skiff,e,21.0089,28.0720,309.1777,6.637084,0.0576419,0.61821812,78.8842,03/22.0/2021,2000,g 11.5,4.0
# From MPEC 2020-AA5
353P/McNaught,e,28.4248,121.5624,230.3797,4.171302,0.1156902,0.47008182,137.2363,03/22.0/2021,2000,g 14.5,4.0
# From MPC105545
